[{"OBJECT_NAME":"STARLINK-5484","OBJECT_ID":"2023-021A","EPOCH":"2026-03-09T19:21:48.546432","MEAN_MOTION":14.9832984,"ECCENTRICITY":0.0003305,"INCLINATION":70.0004,"RA_OF_ASC_NODE":204.2441,"ARG_OF_PERICENTER":268.9762,"MEAN_ANOMALY":91.1018,"EPHEMERIS_TYPE":0,"CLASSIFICATION_TYPE":"U","NORAD_CAT_ID":55628,"ELEMENT_SET_NO":999,"REV_AT_EPOCH":16831,"BSTAR":0.00021094722,"MEAN_MOTION_DOT":2.425e-5,"MEAN_MOTION_DDOT":0},{"OBJECT_NAME":"COSMOS 2251 DEB","OBJECT_ID":"1993-036SU","EPOCH":"2026-03-09T16:21:38.417760","MEAN_MOTION":15.03076437,"ECCENTRICITY":0.00203067,"INCLINATION":74.0425,"RA_OF_ASC_NODE":271.4678,"ARG_OF_PERICENTER":270.4432,"MEAN_ANOMALY":89.443,"EPHEMERIS_TYPE":0,"CLASSIFICATION_TYPE":"U","NORAD_CAT_ID":34451,"ELEMENT_SET_NO":999,"REV_AT_EPOCH":89938,"BSTAR":0.0023702619,"MEAN_MOTION_DOT":0.00032214,"MEAN_MOTION_DDOT":0}]
